[{"OBJECT_NAME":"TIANQI-31","OBJECT_ID":"2024-170C","EPOCH":"2026-03-09T19:56:33.224640","MEAN_MOTION":13.99125748,"ECCENTRICITY":0.00074343,"INCLINATION":44.861,"RA_OF_ASC_NODE":220.3339,"ARG_OF_PERICENTER":324.2667,"MEAN_ANOMALY":35.7666,"EPHEMERIS_TYPE":0,"CLASSIFICATION_TYPE":"U","NORAD_CAT_ID":61197,"ELEMENT_SET_NO":999,"REV_AT_EPOCH":7503,"BSTAR":0.00014351436,"MEAN_MOTION_DOT":8.1e-7,"MEAN_MOTION_DDOT":0},{"OBJECT_NAME":"UNKNOWN","OBJECT_ID":"","EPOCH":"2026-02-21T12:57:55.986912","MEAN_MOTION":14.14656215,"ECCENTRICITY":0.0076654,"INCLINATION":66.6606,"RA_OF_ASC_NODE":22.2114,"ARG_OF_PERICENTER":14.5408,"MEAN_ANOMALY":345.7862,"EPHEMERIS_TYPE":0,"CLASSIFICATION_TYPE":"U","NORAD_CAT_ID":270335,"ELEMENT_SET_NO":999,"REV_AT_EPOCH":24718,"BSTAR":0.00024386005,"MEAN_MOTION_DOT":4.0e-6,"MEAN_MOTION_DDOT":0}]
